OBJECT_NAME,OBJECT_ID,EPOCH,MEAN_MOTION,ECCENTRICITY,INCLINATION,RA_OF_ASC_NODE,ARG_OF_PERICENTER,MEAN_ANOMALY,EPHEMERIS_TYPE,CLASSIFICATION_TYPE,NORAD_CAT_ID,ELEMENT_SET_NO,REV_AT_EPOCH,BSTAR,MEAN_MOTION_DOT,MEAN_MOTION_DDOT
SITRO-AIS 8 (ANOKHIN),2023-091AD,2026-06-17T03:39:38.472768,15.32135683,.0011802,97.5055,233.6399,100.1349,260.1224,0,U,57193,999,16444,.36271E-3,.11202E-3,0
SITRO-AIS 7 (FARTUSHNIY),2023-091AE,2026-06-17T04:23:27.979008,15.25622957,.0012952,97.5063,231.0265,107.3755,252.8900,0,U,57194,999,16427,.32073E-3,.81E-4,0
AVION KALUGA 650,2023-091AF,2026-06-17T03:53:33.284256,15.20352498,.0011899,97.5087,227.7387,109.3836,250.8686,0,U,57195,999,16402,.21216E-3,.4555E-4,0
HORS 2,2023-091AG,2026-06-17T03:56:28.131072,15.31891644,.0009374,97.5088,235.1934,87.9135,272.3180,0,U,57196,999,16452,.32176E-3,.9843E-4,0
A-SEANSAT-PG1,2023-091AH,2026-06-17T03:23:36.605760,15.36958393,.0008294,97.5080,237.7217,85.2671,274.9520,0,U,57197,999,16470,.39436E-3,.14195E-3,0
SITRO-AIS 10 (BURDAEV),2023-091AK,2026-06-17T04:25:16.768704,15.38612377,.0007503,97.5081,238.7263,80.5746,279.6347,0,U,57199,999,16476,.42271E-3,.16062E-3,0
SITRO-AIS 9 (SHCHUKIN),2023-091AM,2026-06-17T03:29:36.763296,15.38118895,.0007783,97.5079,238.4167,80.6027,279.6097,0,U,57201,999,16474,.41537E-3,.1553E-3,0
UTMN 2 (RS27S),2023-091AP,2026-06-17T03:01:37.034112,15.32052698,.0009272,97.5087,235.3462,84.0552,276.1746,0,U,57203,999,16453,.38419E-3,.1183E-3,0
SITRO-AIS 12 (SMIRENNIY),2023-091AQ,2026-06-17T03:16:07.140000,15.38412134,.0007314,97.5092,238.8741,75.8122,284.3935,0,U,57204,999,16476,.41488E-3,.15659E-3,0
SITRO-AIS 11 (SHEFFER),2023-091AU,2026-06-17T03:35:27.385728,15.38836293,.0007182,97.5090,239.1345,75.6067,284.5974,0,U,57208,999,16478,.41136E-3,.15741E-3,0
H2SAT (HEINRICH HERTZ),2023-093A,2026-06-14T16:22:38.496000,1.00272092,.00008601,0.0576,110.9536,82.8758,315.5159,0,U,57213,999,1089,0,.9E-7,0
KUZGTU 1 (RS47S),2023-091AV,2026-06-17T03:57:29.512224,15.29861977,.0012298,97.5062,232.6447,98.0689,262.1947,0,U,57217,999,16437,.3243E-3,.9323E-4,0
QIANKUN-1,2023-103B,2026-06-15T08:46:25.019040,16.08420909,.00293788,96.1468,211.3446,145.9035,214.4147,0,U,57422,999,16700,.23232943E-4,.20233E-3,.1838074E-5
FENGYUN 3F,2023-111A,2026-06-17T04:27:17.084160,14.19939099,.0001592,98.6836,238.1943,93.5463,266.5896,0,U,57490,999,14886,.35705E-4,.32E-6,0
HJ-2F,2023-116A,2026-06-17T04:28:53.501376,15.22320078,.0009865,97.3838,173.4052,52.1967,308.0161,0,U,57519,999,15875,.25742E-3,.5871E-4,0
XRISM,2023-137A,2026-06-16T23:49:26.738112,15.12465505,.0007958,31.0033,0.8620,321.8772,38.1304,0,U,57800,999,15283,.23198E-3,.4236E-4,0
METEOR-M2 4,2024-039A,2026-06-17T04:24:08.642304,14.22429507,.0007293,98.7010,127.4815,160.9601,199.1851,0,U,59051,999,11926,.18952E-4,-.2E-7,0
GRBBETA,2024-128C,2026-06-16T16:32:17.840832,15.06636880,.0040716,61.9884,218.0139,134.5575,225.8855,0,U,60237,999,10619,.18568E-3,.2596E-4,0
TRANSPORTER-11 OBJECT A,2024-149A,2026-06-16T22:59:02.235264,15.32903427,.0002806,97.3734,247.8880,194.2349,165.8814,0,U,60468,999,10202,.23484E-3,.7385E-4,0
WARATAH SEED-1,2024-149B,2026-06-17T04:13:47.333856,15.35944956,.0001545,97.3693,248.7506,178.0751,182.0499,0,U,60469,999,10211,.30211E-3,.10493E-3,0
PHISAT 2,2024-149C,2026-06-17T02:42:12.935808,15.31066121,.0001056,97.3758,247.3290,173.2275,186.8980,0,U,60470,999,10198,.23023E-3,.6833E-4,0
LEMUR-2-TOMATOKECHUP,2024-149D,2026-06-16T23:26:56.559264,15.36030247,.000144,97.3803,250.0230,175.8194,184.3062,0,U,60471,999,10213,.27977E-3,.9737E-4,0
CONNECTA IOT-1,2024-149E,2026-06-16T16:50:32.818272,15.23537525,.000031,97.3760,244.0012,295.9242,64.1963,0,U,60472,999,10172,.14818E-3,.347E-4,0
LOPEN,2024-149F,2026-06-16T17:46:12.055584,15.39677035,.0000785,97.3782,251.1044,183.8409,176.2831,0,U,60473,999,10219,.3181E-3,.12479E-3,0
ROCK,2024-149G,2026-06-16T23:41:12.712416,15.39678371,.0001097,97.3779,251.3688,190.8478,169.2745,0,U,60474,999,10223,.33129E-3,.13002E-3,0
CONNECTA IOT-3,2024-149H,2026-06-16T17:21:19.982880,15.23549952,.0001359,97.3735,243.7754,255.6521,104.4565,0,U,60475,999,10173,.14152E-3,.3312E-4,0
QUBE,2024-149J,2026-06-16T23:30:23.026752,15.47181327,.0001964,97.3783,254.4087,194.0191,166.1005,0,U,60476,999,10243,.40144E-3,.20327E-3,0
WREN-1,2024-149L,2026-06-16T17:52:35.666400,15.41541460,.0003216,97.3769,251.8523,250.4283,109.6617,0,U,60478,999,10225,.40208E-3,.16811E-3,0
TOMORROW-S1,2024-149M,2026-06-16T22:34:21.085248,15.32718747,.0001517,97.3751,248.4133,213.7931,146.3215,0,U,60479,999,10205,.20144E-3,.6286E-4,0
